H1 CPF  1  DLR 2022 03 16 10  5752 technosat            
H2  1704205 6203    42829 2022 03 16 00 00 00 2022 03 23 00 00 00    60 1 1  0 0 0
H9
10 0 59656  64800.000000  0       1688551.413       1991842.895       6465382.448
10 0 59656  64860.000000  0       2068936.712       2178175.961       6293080.511
10 0 59656  64920.000000  0       2442222.273       2352076.950       6094196.267
10 0 59656  64980.000000  0       2806730.039       2512885.144       5869567.403
10 0 59656  65040.000000  0       3160812.689       2660008.845       5620139.837
10 0 59656  65100.000000  0       3502861.107       2792927.559       5346963.906
10 0 59656  65160.000000  0       3831311.703       2911193.854       5051190.114
10 0 59656  65220.000000  0       4144653.560       3014434.873       4734064.509
10 0 59656  65280.000000  0       4441435.455       3102353.459       4396923.668
10 0 59656  65340.000000  0       4720272.742       3174728.942       4041189.387
10 0 59656  65400.000000  0       4979854.207       3231417.695       3668362.808
10 0 59656  65460.000000  0       5218948.380       3272353.076       3280017.918
10 0 59656  65520.000000  0       5436409.381       3297544.978       2877795.049
10 0 59656  65580.000000  0       5631182.590       3307079.190       2463394.052
10 0 59656  65640.000000  0       5802309.941       3301116.334       2038567.100
10 0 59656  65700.000000  0       5948934.793       3279890.421       1605111.220
10 0 59656  65760.000000  0       6070306.357       3243707.035       1164860.590
10 0 59656  65820.000000  0       6165783.616       3192941.153        719678.617
10 0 59656  65880.000000  0       6234838.690       3128034.599        271449.878
10 0 59656  65940.000000  0       6277059.705       3049493.192       -177928.013
10 0 59656  66000.000000  0       6292153.118       2957883.527       -626552.630
10 0 59656  66060.000000  0       6279945.420       2853829.451      -1072524.956
10 0 59656  66120.000000  0       6240384.281       2738008.381      -1513957.495
10 0 59656  66180.000000  0       6173539.226       2611147.421      -1948982.406
10 0 59656  66240.000000  0       6079601.684       2474019.167      -2375759.623
10 0 59656  66300.000000  0       5958884.397       2327437.276      -2792484.760
10 0 59656  66360.000000  0       5811820.290       2172251.899      -3197396.803
10 0 59656  66420.000000  0       5638960.797       2009344.977      -3588785.616
10 0 59656  66480.000000  0       5440973.624       1839625.388      -3964999.217
10 0 59656  66540.000000  0       5218639.911       1664024.004      -4324450.774
10 0 59656  66600.000000  0       4972850.828       1483488.711      -4665625.182
10 0 59656  66660.000000  0       4704603.779       1298979.444      -4987085.250
10 0 59656  66720.000000  0       4414998.165       1111463.227      -5287477.605
10 0 59656  66780.000000  0       4105230.682        921909.219      -5565538.222
10 0 59656  66840.000000  0       3776590.221        731283.822      -5820097.530
10 0 59656  66900.000000  0       3430452.329        540545.865      -6050085.177
10 0 59656  66960.000000  0       3068273.269        350641.907      -6254534.256
10 0 59656  67020.000000  0       2691583.841        162501.637      -6432585.115
10 0 59656  67080.000000  0       2301982.876        -22966.564      -6583488.756
10 0 59656  67140.000000  0       1901130.493       -204879.901      -6706609.753
10 0 59656  67200.000000  0       1490741.125       -382385.286      -6801428.835
10 0 59656  67260.000000  0       1072576.167       -554663.298      -6867545.023
10 0 59656  67320.000000  0        648436.428       -720931.876      -6904677.147
10 0 59656  67380.000000  0        220154.509       -880449.796      -6912664.923
10 0 59656  67440.000000  0       -210412.945      -1032519.924      -6891469.639
10 0 59656  67500.000000  0       -641393.130      -1176492.220      -6841174.433
10 0 59656  67560.000000  0      -1070905.162      -1311766.521      -6761984.107
10 0 59656  67620.000000  0      -1497068.181      -1437795.033      -6654224.427
10 0 59656  67680.000000  0      -1918009.537      -1554084.596      -6518340.958
10 0 59656  67740.000000  0      -2331872.929      -1660198.604      -6354897.349
10 0 59656  67800.000000  0      -2736826.460      -1755758.646      -6164573.263
10 0 59656  67860.000000  0      -3131070.725      -1840445.913      -5948161.930
10 0 59656  67920.000000  0      -3512846.903      -1914002.303      -5706567.206
10 0 59656  67980.000000  0      -3880444.786      -1976231.221      -5440800.109
10 0 59656  68040.000000  0      -4232210.627      -2026998.044      -5151974.849
10 0 59656  68100.000000  0      -4566554.770      -2066230.273      -4841304.401
10 0 59656  68160.000000  0      -4881959.070      -2093917.371      -4510095.684
10 0 59656  68220.000000  0      -5176984.087      -2110110.293      -4159744.293
10 0 59656  68280.000000  0      -5450276.007      -2114920.703      -3791728.790
10 0 59656  68340.000000  0      -5700573.220      -2108519.856      -3407604.555
10 0 59656  68400.000000  0      -5926712.494      -2091137.164      -3008997.250
10 0 59656  68460.000000  0      -6127634.727      -2063058.442      -2597595.929
10 0 59656  68520.000000  0      -6302390.253      -2024623.870      -2175145.851
10 0 59656  68580.000000  0      -6450143.688      -1976225.649      -1743440.958
10 0 59656  68640.000000  0      -6570178.215      -1918305.382      -1304316.063
10 0 59656  68700.000000  0      -6661899.291      -1851351.195       -859638.849
10 0 59656  68760.000000  0      -6724837.824      -1775894.602       -411301.667
10 0 59656  68820.000000  0      -6758652.714      -1692507.129         38786.807
10 0 59656  68880.000000  0      -6763132.757      -1601796.724        488710.035
10 0 59656  68940.000000  0      -6738197.888      -1504403.982        936552.105
10 0 59656  69000.000000  0      -6683899.773      -1400998.223       1380406.219
10 0 59656  69060.000000  0      -6600421.751      -1292273.428       1818383.133
10 0 59656  69120.000000  0      -6488078.107      -1178944.078       2248619.496
10 0 59656  69180.000000  0      -6347312.708      -1061740.905       2669286.030
10 0 59656  69240.000000  0      -6178697.031       -941406.572       3078595.526
10 0 59656  69300.000000  0      -5982927.571       -818691.306       3474810.663
10 0 59656  69360.000000  0      -5760822.568       -694348.542       3856251.562
10 0 59656  69420.000000  0      -5513318.128       -569130.625       4221302.939
10 0 59656  69480.000000  0      -5241463.867       -443784.572       4568420.885
10 0 59656  69540.000000  0      -4946418.107       -319047.894       4896139.306
10 0 59656  69600.000000  0      -4629442.599       -195644.506       5203075.980
10 0 59656  69660.000000  0      -4291896.838        -74280.761       5487938.274
10 0 59656  69720.000000  0      -3935231.857         44358.362       5749528.445
10 0 59656  69780.000000  0      -3560983.672        159612.905       5986748.437
10 0 59656  69840.000000  0      -3170766.366        270851.406       6198604.239
10 0 59656  69900.000000  0      -2766264.908        377474.145       6384209.730
10 0 59656  69960.000000  0      -2349227.742        478916.160       6542790.156
10 0 59656  70020.000000  0      -1921459.052        574650.094       6673685.130
10 0 59656  70080.000000  0      -1484810.838        664188.809       6776351.061
10 0 59656  70140.000000  0      -1041174.903        747087.749       6850363.114
10 0 59656  70200.000000  0       -592474.687        822947.031       6895416.770
10 0 59656  70260.000000  0       -140656.975        891413.297       6911328.876
10 0 59656  70320.000000  0        312316.441        952181.287       6898038.256
10 0 59656  70380.000000  0        764477.184       1004995.171       6855605.879
10 0 59656  70440.000000  0       1213858.753       1049649.614       6784214.535
10 0 59656  70500.000000  0       1658504.961       1085990.543       6684168.035
10 0 59656  70560.000000  0       2096478.337       1113915.633       6555889.960
10 0 59656  70620.000000  0       2525868.459       1133374.522       6399921.992
10 0 59656  70680.000000  0       2944800.264       1144368.748       6216921.801
10 0 59656  70740.000000  0       3351442.267       1146951.398       6007660.389
10 0 59656  70800.000000  0       3744014.527       1141226.485       5773018.951
10 0 59656  70860.000000  0       4120796.405       1127348.059       5513985.369
10 0 59656  70920.000000  0       4480134.148       1105519.038       5231650.314
10 0 59656  70980.000000  0       4820448.265       1075989.772       4927202.965
10 0 59656  71040.000000  0       5140240.730       1039056.355       4601926.236
10 0 59656  71100.000000  0       5438101.792        995058.681       4257191.475
10 0 59656  71160.000000  0       5712716.406        944378.279       3894452.832
10 0 59656  71220.000000  0       5962870.292        887435.919       3515241.205
10 0 59656  71280.000000  0       6187455.495        824688.953       3121157.801
10 0 59656  71340.000000  0       6385475.445        756628.423       2713867.466
10 0 59656  71400.000000  0       6556049.693        683776.038       2295091.797
10 0 59656  71460.000000  0       6698418.187        606680.979       1866601.787
10 0 59656  71520.000000  0       6811944.827        525916.516       1430210.176
10 0 59656  71580.000000  0       6896120.424        442076.486        987763.723
10 0 59656  71640.000000  0       6950565.186        355771.662        541135.336
10 0 59656  71700.000000  0       6975030.650        267626.027         92215.939
10 0 59656  71760.000000  0       6969400.811        178272.949       -357093.786
10 0 59656  71820.000000  0       6933692.683         88351.321       -804891.571
10 0 59656  71880.000000  0       6868056.259         -1498.301      -1249281.808
10 0 59656  71940.000000  0       6772773.782        -90637.590      -1688383.776
99
